OBJECT_NAME,OBJECT_ID,EPOCH,MEAN_MOTION,ECCENTRICITY,INCLINATION,RA_OF_ASC_NODE,ARG_OF_PERICENTER,MEAN_ANOMALY,EPHEMERIS_TYPE,CLASSIFICATION_TYPE,NORAD_CAT_ID,ELEMENT_SET_NO,REV_AT_EPOCH,BSTAR,MEAN_MOTION_DOT,MEAN_MOTION_DDOT
STARLINK-32858,2025-029Q,2026-06-05T16:14:55.379904,15.30211173,.0001174,53.1569,183.4300,67.4450,292.6675,0,U,62962,999,7477,.63975E-3,.18642E-3,0
STARLINK-32882,2025-029R,2026-06-05T13:33:47.447136,15.34400357,.000121,53.1579,181.3103,82.9294,277.1847,0,U,62963,999,7481,.8421E-3,.28183E-3,0
STARLINK-32888,2025-029U,2026-06-05T08:06:35.347104,15.30209711,.0001276,53.1587,185.5866,50.2400,309.8712,0,U,62966,999,7473,.7954E-3,.23279E-3,0
STARLINK-32897,2025-029V,2026-06-05T13:16:26.664096,15.34387488,.0001071,53.1567,183.3570,78.3102,281.8021,0,U,62967,999,7478,.66325E-3,.2209E-3,0
STARLINK-32863,2025-029W,2026-06-05T13:11:43.241856,15.31706256,.0001156,53.1574,184.0534,71.1172,288.9955,0,U,62968,999,7391,.86036E-3,.26433E-3,0
STARLINK-32894,2025-029X,2026-06-05T08:44:24.497088,15.30210320,.0001059,53.1534,185.0178,80.7947,279.3174,0,U,62969,999,7474,.6512E-3,.18983E-3,0
STARLINK-32826,2025-029Y,2026-06-05T08:35:17.716416,15.30206223,.0001891,53.1571,184.9841,92.1696,267.9521,0,U,62970,999,7474,.51356E-3,.14884E-3,0
STARLINK-11543 [DTC],2025-031A,2026-06-04T06:33:43.166592,15.70701854,.0001706,42.9994,199.2136,228.7834,131.2887,0,U,62981,999,7636,.18229172E-2,.238916E-2,0
STARLINK-11458 [DTC],2025-031B,2026-06-05T08:53:12.838272,15.70797080,.0001683,43.0023,192.8301,271.3436,88.7238,0,U,62982,999,7653,.15699E-2,.205677E-2,0
STARLINK-11417 [DTC],2025-031C,2026-06-05T09:46:43.607424,15.70832523,.0001496,43.0007,193.1259,287.3689,72.7015,0,U,62983,999,7653,.28032E-3,.35664E-3,0
STARLINK-11544 [DTC],2025-031D,2026-06-05T05:42:26.307072,15.70880212,.0001493,42.9969,193.5496,166.3445,193.7463,0,U,62984,999,7648,.10802E-2,.140759E-2,0
STARLINK-11582 [DTC],2025-031E,2026-06-05T06:05:22.820640,15.70883402,.0001268,42.9990,193.6802,221.6338,138.4433,0,U,62985,999,7651,.10445E-2,.136033E-2,0
STARLINK-11571 [DTC],2025-031F,2026-06-05T03:47:56.584320,15.70976740,.0001586,42.9993,193.8072,312.3193,47.7540,0,U,62986,999,7650,.10647E-2,.139282E-2,0
STARLINK-11539 [DTC],2025-031G,2026-06-05T09:00:51.312960,15.70850950,.0001176,42.9991,192.8680,222.6531,137.4245,0,U,62987,999,7653,.10061E-2,.130759E-2,0
STARLINK-11542 [DTC],2025-031H,2026-06-04T09:44:31.480224,15.70814223,.00021098,42.9984,198.4908,288.7600,71.3038,0,U,62988,999,7635,.70552753E-3,.90982E-3,0
STARLINK-11573 [DTC],2025-031J,2026-06-05T09:23:47.690016,15.70822808,.0000859,42.9992,192.9964,222.9816,137.0985,0,U,62989,999,7650,.12945E-2,.168948E-2,0
STARLINK-11572 [DTC],2025-031K,2026-06-03T06:25:24.254112,15.70849765,.0001078,42.9987,205.4379,256.6866,103.3881,0,U,62990,999,7620,.12866E-2,.168089E-2,0
STARLINK-11583 [DTC],2025-031L,2026-06-05T09:31:26.302944,15.71021918,.0002098,42.9983,193.0375,153.3861,206.7114,0,U,62991,999,7654,.13448E-2,.177191E-2,0
STARLINK-11570 [DTC],2025-031M,2026-06-05T12:42:12.212064,15.70850010,.0001895,42.9997,192.3165,257.9478,102.1177,0,U,62992,999,7654,.15642E-2,.205386E-2,0
STARLINK-11576 [DTC],2025-031N,2026-06-05T06:13:00.440832,15.70958284,.0001368,42.9994,193.7176,264.5976,95.4735,0,U,62993,999,7650,.50287E-3,.64905E-3,0
STARLINK-32899,2025-031P,2026-06-05T15:40:36.420384,15.27593035,.0001993,43.0014,6.9561,311.3827,48.6853,0,U,62994,999,7454,.28377E-3,.7558E-4,0
STARLINK-32703,2025-031R,2026-06-05T17:07:21.980640,15.27606542,.0001655,42.9935,6.5525,44.1513,315.9470,0,U,62996,999,7455,.77227E-3,.21067E-3,0
STARLINK-32881,2025-031S,2026-06-05T17:46:01.233120,15.27547771,.0000618,42.9963,5.8795,268.2396,91.8385,0,U,62997,999,7456,.26878E-2,.74377E-3,0
STARLINK-32898,2025-031T,2026-06-05T10:41:29.642208,15.27595532,.0000925,43.0013,7.9705,235.7858,124.2906,0,U,62998,999,7451,.61405E-3,.16681E-3,0
STARLINK-32673,2025-031V,2026-06-05T07:18:21.702240,15.27598165,.0002103,43.0059,8.6268,266.5803,93.4809,0,U,63000,999,7449,.55309E-3,.14997E-3,0
STARLINK-32437,2025-031W,2026-06-04T17:47:58.059744,15.27642258,.00006023,42.9965,12.1490,204.7199,155.3624,0,U,63001,999,7440,.62022712E-3,.16877E-3,0
