STARLINK-32858          
1 62962U 25029Q   26156.67702986  .00018642  00000+0  63975-3 0  9991
2 62962  53.1569 183.4300 0001174  67.4450 292.6675 15.30211173 74770
STARLINK-32882          
1 62963U 25029R   26156.56513249  .00028183  00000+0  84210-3 0  9998
2 62963  53.1579 181.3103 0001210  82.9294 277.1847 15.34400357 74811
STARLINK-32888          
1 62966U 25029U   26156.33790911  .00023279  00000+0  79540-3 0  9990
2 62966  53.1587 185.5866 0001276  50.2400 309.8712 15.30209711 74736
STARLINK-32897          
1 62967U 25029V   26156.55308639  .00022090  00000+0  66325-3 0  9994
2 62967  53.1567 183.3570 0001071  78.3102 281.8021 15.34387488 74785
STARLINK-32863          
1 62968U 25029W   26156.54980604  .00026433  00000+0  86036-3 0  9998
2 62968  53.1574 184.0534 0001156  71.1172 288.9955 15.31706256 73917
STARLINK-32894          
1 62969U 25029X   26156.36417242  .00018983  00000+0  65120-3 0  9994
2 62969  53.1534 185.0178 0001059  80.7947 279.3174 15.30210320 74747
STARLINK-32826          
1 62970U 25029Y   26156.35784394  .00014884  00000+0  51356-3 0  9992
2 62970  53.1571 184.9841 0001891  92.1696 267.9521 15.30206223 74743
STARLINK-11543 [DTC]    
1 62981U 25031A   26155.27341628  .00238916  00000+0  18229-2 0  9991
2 62981  42.9994 199.2136 0001706 228.7834 131.2887 15.70701854 76364
STARLINK-11458 [DTC]    
1 62982U 25031B   26156.37028748  .00205677  00000+0  15699-2 0  9995
2 62982  43.0023 192.8301 0001683 271.3436  88.7238 15.70797080 76530
STARLINK-11417 [DTC]    
1 62983U 25031C   26156.40744916  .00035664  00000+0  28032-3 0  9995
2 62983  43.0007 193.1259 0001496 287.3689  72.7015 15.70832523 76536
STARLINK-11544 [DTC]    
1 62984U 25031D   26156.23780448  .00140759  00000+0  10802-2 0  9994
2 62984  42.9969 193.5496 0001493 166.3445 193.7463 15.70880212 76485
STARLINK-11582 [DTC]    
1 62985U 25031E   26156.25373635  .00136033  00000+0  10445-2 0  9996
2 62985  42.9990 193.6802 0001268 221.6338 138.4433 15.70883402 76519
STARLINK-11571 [DTC]    
1 62986U 25031F   26156.15829380  .00139282  00000+0  10647-2 0  9992
2 62986  42.9993 193.8072 0001586 312.3193  47.7540 15.70976740 76502
STARLINK-11539 [DTC]    
1 62987U 25031G   26156.37559390  .00130759  00000+0  10061-2 0  9998
2 62987  42.9991 192.8680 0001176 222.6531 137.4245 15.70850950 76535
STARLINK-11542 [DTC]    
1 62988U 25031H   26155.40591991  .00090982  00000+0  70553-3 0  9991
2 62988  42.9984 198.4908 0002109 288.7600  71.3038 15.70814223 76359
STARLINK-11573 [DTC]    
1 62989U 25031J   26156.39152419  .00168948  00000+0  12945-2 0  9997
2 62989  42.9992 192.9964 0000859 222.9816 137.0985 15.70822808 76505
STARLINK-11572 [DTC]    
1 62990U 25031K   26154.26764183  .00168089  00000+0  12866-2 0  9998
2 62990  42.9987 205.4379 0001078 256.6866 103.3881 15.70849765 76203
STARLINK-11583 [DTC]    
1 62991U 25031L   26156.39683221  .00177191  00000+0  13448-2 0  9999
2 62991  42.9983 193.0375 0002098 153.3861 206.7114 15.71021918 76546
STARLINK-11570 [DTC]    
1 62992U 25031M   26156.52930801  .00205386  00000+0  15642-2 0  9990
2 62992  42.9997 192.3165 0001895 257.9478 102.1177 15.70850010 76540
STARLINK-11576 [DTC]    
1 62993U 25031N   26156.25903288  .00064905  00000+0  50287-3 0  9995
2 62993  42.9994 193.7176 0001368 264.5976  95.4735 15.70958284 76509
STARLINK-32899          
1 62994U 25031P   26156.65319931  .00007558  00000+0  28377-3 0  9992
2 62994  43.0014   6.9561 0001993 311.3827  48.6853 15.27593035 74542
STARLINK-32703          
1 62996U 25031R   26156.71344885  .00021067  00000+0  77227-3 0  9996
2 62996  42.9935   6.5525 0001655  44.1513 315.9470 15.27606542 74552
STARLINK-32881          
1 62997U 25031S   26156.74029205  .00074377  00000+0  26878-2 0  9993
2 62997  42.9963   5.8795 0000618 268.2396  91.8385 15.27547771 74565
STARLINK-32898          
1 62998U 25031T   26156.44548197  .00016681  00000+0  61405-3 0  9997
2 62998  43.0013   7.9705 0000925 235.7858 124.2906 15.27595532 74514
STARLINK-32673          
1 63000U 25031V   26156.30441785  .00014997  00000+0  55309-3 0  9996
2 63000  43.0059   8.6268 0002103 266.5803  93.4809 15.27598165 74494
STARLINK-32437          
1 63001U 25031W   26155.74164421  .00016877  00000+0  62023-3 0  9993
2 63001  42.9965  12.1490 0000602 204.7199 155.3624 15.27642258 74407
